CLUSTER II-FM7
1 26411U 00041B   09297.04166667 +.00000579 +00000-0 +00000-0 0 04123
2 26411 117.8424 199.3632 8690903 038.0352 359.2007 00.42039089005222